{
    "links": {
        "self": "http://www.neowsapp.com/rest/v1/neo/54051319?api_key=iIulBulltgU6a56xZRHN4H3l9WmuAYTsLGpBGhQ2"
    },
    "id": "54051319",
    "neo_reference_id": "54051319",
    "name": "(2020 QX3)",
    "designation": "2020 QX3",
    "nasa_jpl_url": "http://ssd.jpl.nasa.gov/sbdb.cgi?sstr=54051319",
    "absolute_magnitude_h": 23.022,
    "estimated_diameter": {
        "kilometers": {
            "estimated_diameter_min": 0.0660929256,
            "estimated_diameter_max": 0.1477882746
        },
        "meters": {
            "estimated_diameter_min": 66.0929256438,
            "estimated_diameter_max": 147.7882745713
        },
        "miles": {
            "estimated_diameter_min": 0.0410682273,
            "estimated_diameter_max": 0.091831348
        },
        "feet": {
            "estimated_diameter_min": 216.8403141691,
            "estimated_diameter_max": 484.8696827445
        }
    },
    "is_potentially_hazardous_asteroid": false,
    "close_approach_data": [
        {
            "close_approach_date": "2020-08-28",
            "close_approach_date_full": "2020-Aug-28 21:21",
            "epoch_date_close_approach": 1598649660000,
            "relative_velocity": {
                "kilometers_per_second": "10.6383252909",
                "kilometers_per_hour": "38297.9710470697",
                "miles_per_hour": "23796.8698431084"
            },
            "miss_distance": {
                "astronomical": "0.0873462893",
                "lunar": "33.9777065377",
                "kilometers": "13066818.831683791",
                "miles": "8119344.7229906758"
            },
            "orbiting_body": "Earth"
        }
    ],
    "orbital_data": {
        "orbit_id": "5",
        "orbit_determination_date": "2020-10-26 09:36:07",
        "first_observation_date": "2020-08-19",
        "last_observation_date": "2020-08-23",
        "data_arc_in_days": 4,
        "observations_used": 37,
        "orbit_uncertainty": "9",
        "minimum_orbit_intersection": ".0218982",
        "jupiter_tisserand_invariant": "4.153",
        "epoch_osculation": "2459081.5",
        "eccentricity": ".5136240237374551",
        "semi_major_axis": "1.629923515863819",
        "inclination": "1.457350036574649",
        "ascending_node_longitude": "203.8009026404535",
        "orbital_period": "760.0624290874281",
        "perihelion_distance": ".7927556412615444",
        "perihelion_argument": "190.3797825635812",
        "aphelion_distance": "2.467091390466093",
        "perihelion_time": "2459132.637274492901",
        "mean_anomaly": "335.7790700961924",
        "mean_motion": ".4736453036262237",
        "equinox": "J2000",
        "orbit_class": {
            "orbit_class_type": "APO",
            "orbit_class_description": "Near-Earth asteroid orbits which cross the Earth’s orbit similar to that of 1862 Apollo",
            "orbit_class_range": "a (semi-major axis) > 1.0 AU; q (perihelion) < 1.017 AU"
        }
    },
    "is_sentry_object": false
}